BEIDOU IGSO 3           
1 37384U 11013A   17346.45980539 -.00000221  00000-0  10000-3 0  9995
2 37384  58.0547  71.0778 0033182 205.5417  91.1079  1.00264785 24508
